{
  "type": "FeatureCollection",
  "features": [
    {
      "type": "Feature",
      "properties": {
        "id": "N",
        "name": "North Building",
        "source": "openstreetmap"
      },
      "geometry": {
        "type": "Polygon",
        "coordinates": [
          [
            [
              -73.96487610150936,
              40.76885350341358
            ],
            [
              -73.96471239650437,
              40.76878450413223
            ],
            [
              -73.96452390208765,
              40.768704599353214
            ],
            [
              -73.9644882954781,
              40.768752802730866
            ],
            [
              -73.96431379699719,
              40.76867909629895
            ],
            [
              -73.96408560393886,
              40.768583498023716
            ],
            [
              -73.9641979035322,
              40.768430003593245
            ],
            [
              -73.96417199919001,
              40.76841909809558
            ],
            [
              -73.96421600336105,
              40.76835890226374
            ],
            [
              -73.96419420291188,
              40.76834980237154
            ],
            [
              -73.96422920461235,
              40.76830190441969
            ],
            [
              -73.96425089831284,
              40.76831100431189
            ],
            [
              -73.96428809429136,
              40.768260195831836
            ],
            [
              -73.96430269513625,
              40.76826640316205
            ],
            [
              -73.96436260485805,
              40.76829179841897
            ],
            [
              -73.96447610240861,
              40.76834000179662
            ],
            [
              -73.96453780313576,
              40.76836599892203
            ],
            [
              -73.96465730233336,
              40.76820440172476
            ],
            [
              -73.96484769450407,
              40.7682850970176
            ],
            [
              -73.96502259625771,
              40.76835999820338
            ],
            [
              -73.96518619451405,
              40.76842979698167
            ],
            [
              -73.96536689627837,
              40.76850629716134
            ],
            [
              -73.96519180474932,
              40.7687431997844
            ],
            [
              -73.96501570503847,
              40.768982096658284
            ],
            [
              -73.96483699591586,
              40.768906503772904
            ],
            [
              -73.96487610150936,
              40.76885350341358
            ]
          ]
        ]
      }
    },
    {
      "type": "Feature",
      "properties": {
        "id": "E",
        "name": "East Building",
        "source": "openstreetmap"
      },
      "geometry": {
        "type": "Polygon",
        "coordinates": [
          [
            [
              -73.96415660366063,
              40.76752850341358
            ],
            [
              -73.9641265005377,
              40.76756919690981
            ],
            [
              -73.96400479520106,
              40.767733201581024
            ],
            [
              -73.96394660531884,
              40.76770839920948
            ],
            [
              -73.96361709591847,
              40.76756810097017
            ],
            [
              -73.96362970412166,
              40.767552596119295
            ],
            [
              -73.96369829606803,
              40.767458695652174
            ],
            [
              -73.9637838966347,
              40.767343397412866
            ],
            [
              -73.96380880465603,
              40.767353997484726
            ],
            [
              -73.96382799569342,
              40.76736219906576
            ],
            [
              -73.96389100112644,
              40.76738899568811
            ],
            [
              -73.96417139428092,
              40.767508695652175
            ],
            [
              -73.96415660366063,
              40.76752850341358
            ]
          ]
        ]
      }
    },
    {
      "type": "Feature",
      "properties": {
        "id": "W",
        "name": "West Building",
        "source": "openstreetmap"
      },
      "geometry": {
        "type": "Polygon",
        "coordinates": [
          [
            [
              -73.96453220476144,
              40.767954500538984
            ],
            [
              -73.96444360337125,
              40.76791669960474
            ],
            [
              -73.96450409428022,
              40.76783460294646
            ],
            [
              -73.96448899527489,
              40.76777819798778
            ],
            [
              -73.96447030239793,
              40.76770800395257
            ],
            [
              -73.96441580127505,
              40.76768480057492
            ],
            [
              -73.96438759590613,
              40.767722996766075
            ],
            [
              -73.96434410175648,
              40.76770450053898
            ],
            [
              -73.96436800159601,
              40.76767160438376
            ],
            [
              -73.96439810471894,
              40.76763090190442
            ],
            [
              -73.96443660540335,
              40.767648095580306
            ],
            [
              -73.96447289994873,
              40.76759779913762
            ],
            [
              -73.96443220498625,
              40.76758039885016
            ],
            [
              -73.96459989527466,
              40.76735530003593
            ],
            [
              -73.96498790294228,
              40.76752069708947
            ],
            [
              -73.96509110517735,
              40.767565801293564
            ],
            [
              -73.96500690420427,
              40.76767829680201
            ],
            [
              -73.96482419793728,
              40.76792609593963
            ],
            [
              -73.96473859737061,
              40.76804230147323
            ],
            [
              -73.96459099955275,
              40.76797940172476
            ],
            [
              -73.96453220476144,
              40.767954500538984
            ]
          ]
        ]
      }
    },
    {
      "type": "Feature",
      "properties": {
        "id": "TH",
        "name": "Thomas Hunter Hall",
        "source": "openstreetmap"
      },
      "geometry": {
        "type": "Polygon",
        "coordinates": [
          [
            [
              -73.96447869995941,
              40.768131503772906
            ],
            [
              -73.96445870237656,
              40.76815859683794
            ],
            [
              -73.96449989549947,
              40.76817620373697
            ],
            [
              -73.96449670490054,
              40.768198499820336
            ],
            [
              -73.96445949706106,
              40.768248904060364
            ],
            [
              -73.96443920295414,
              40.76826360043119
            ],
            [
              -73.96439670512535,
              40.76824549946101
            ],
            [
              -73.96436260485805,
              40.76829179841897
            ],
            [
              -73.96430269513625,
              40.76826640316205
            ],
            [
              -73.9643174027298,
              40.768246604383755
            ],
            [
              -73.96424369870857,
              40.76821519942508
            ],
            [
              -73.96420569618459,
              40.768266699604744
            ],
            [
              -73.96424290402409,
              40.76828250089831
            ],
            [
              -73.96422920461235,
              40.76830190441969
            ],
            [
              -73.96419420291188,
              40.76834980237154
            ],
            [
              -73.964179602067,
              40.76836849622709
            ],
            [
              -73.96414270261253,
              40.76835280273087
            ],
            [
              -73.96399219885885,
              40.768557204455625
            ],
            [
              -73.96391129523334,
              40.76852289795185
            ],
            [
              -73.96380090525497,
              40.768476203736974
            ],
            [
              -73.96379470197157,
              40.768473598634564
            ],
            [
              -73.96388610254891,
              40.76835019762846
            ],
            [
              -73.96388010090186,
              40.76832069708947
            ],
            [
              -73.96389019458098,
              40.76830500359324
            ],
            [
              -73.96391690546864,
              40.76829019942508
            ],
            [
              -73.96393169608892,
              40.76826769673015
            ],
            [
              -73.96392810221727,
              40.768227398490836
            ],
            [
              -73.96393900244185,
              40.76821319619116
            ],
            [
              -73.96395119551134,
              40.76819719726913
            ],
            [
              -73.96397779965032,
              40.768185303629174
            ],
            [
              -73.96399549620644,
              40.76818080309019
            ],
            [
              -73.96400939725453,
              40.768162199065756
            ],
            [
              -73.96401379767163,
              40.76813259971254
            ],
            [
              -73.96403009463417,
              40.76811210025153
            ],
            [
              -73.96407080145761,
              40.76809970355731
            ],
            [
              -73.96416159712587,
              40.767976500179664
            ],
            [
              -73.96432090171376,
              40.76804429572404
            ],
            [
              -73.96435349563882,
              40.76805820158103
            ],
            [
              -73.96434209725382,
              40.7680736974488
            ],
            [
              -73.9644200000558,
              40.76810680021559
            ],
            [
              -73.96447869995941,
              40.768131503772906
            ]
          ]
        ]
      }
    },
    {
      "type": "Feature",
      "properties": {
        "id": "BTB",
        "name": "Baker Theatre Building",
        "source": "approximated-address"
      },
      "geometry": {
        "type": "Polygon",
        "coordinates": [
          [
            [
              -73.96412000073023,
              40.76651999640676
            ],
            [
              -73.9638799941532,
              40.76661999640675
            ],
            [
              -73.96372000162948,
              40.76638000359324
            ],
            [
              -73.96395999634555,
              40.766280003593245
            ],
            [
              -73.96412000073023,
              40.76651999640676
            ]
          ]
        ]
      }
    }
  ]
}